sat12740
1 12740U 81053CH  20046.76868597  .00000614  00000-0  27674-3 0  9999
2 12740  82.8436 297.8623 0022284 310.6729 113.9316 14.20732950967571
